NORAD_CAT_ID,OBJECT_NAME,OBJECT_TYPE,EPOCH,MEAN_MOTION,ECCENTRICITY,INCLINATION,RA_OF_ASC_NODE,ARG_OF_PERICENTER,MEAN_ANOMALY,BSTAR,MEAN_MOTION_DOT,MEAN_MOTION_DDOT,TLE_LINE0,TLE_LINE1,TLE_LINE2,SEMIMAJOR_AXIS,PERIOD,APOGEE,PERIGEE,DECAYED
49758.0,STARLINK-3194,PAYLOAD,2024-01-12 03:59:22,15.08834908,0.0001312,53.2196,74.4548,90.0085,270.1058,-1.6035e-05,-5.43e-06,0.0,0 STARLINK-3194,1 49758U 21115AL  24012.16623554 -.00000543  00000-0 -16035-4 0  9997,2 49758  53.2196  74.4548 0001312  90.0085 270.1058 15.08834908117897,6917.896,95.438,540.669,538.853,0.0
49758.0,STARLINK-3194,PAYLOAD,2024-01-12 10:20:55,15.08833201,0.0001194,53.2202,73.2641,87.8324,272.2805,-1.4028e-05,-5.11e-06,0.0,0 STARLINK-3194,1 49758U 21115AL  24012.43119795 -.00000511  00000-0 -14028-4 0  9999,2 49758  53.2202  73.2641 0001194  87.8324 272.2805 15.08833201116824,6917.901,95.438,540.592,538.94,0.0
49758.0,STARLINK-3194,PAYLOAD,2024-01-13 10:11:41,15.08845517,0.0001645,53.2181,68.8029,91.0164,269.1016,6.7037e-05,7.79e-06,0.0,0 STARLINK-3194,1 49758U 21115AL  24013.42478871  .00000779  00000-0  67037-4 0  9994,2 49758  53.2181  68.8029 0001645  91.0164 269.1016 15.08845517118082,6917.864,95.437,540.867,538.591,0.0
49758.0,STARLINK-3194,PAYLOAD,2024-01-14 03:40:57,15.08834342,0.0001878,53.2193,65.5335,65.3021,294.8166,7.8987e-05,9.69e-06,0.0,0 STARLINK-3194,1 49758U 21115AL  24014.15343808  .00000969  00000-0  78987-4 0  9993,2 49758  53.2193  65.5335 0001878  65.3021 294.8166 15.08834342118190,6917.898,95.438,541.062,538.464,0.0
49758.0,STARLINK-3194,PAYLOAD,2024-01-14 08:27:06,15.08834451,0.0001765,53.2198,64.6438,70.7749,289.3434,0.00010762,1.425e-05,0.0,0 STARLINK-3194,1 49758U 21115AL  24014.35215695  .00001425  00000-0  10762-3 0  9991,2 49758  53.2198  64.6438 0001765  70.7749 289.3434 15.08834451117110,6917.897,95.438,540.983,538.541,0.0
49758.0,STARLINK-3194,PAYLOAD,2024-01-15 09:53:16,15.08853853,0.0002349,53.2201,59.8872,101.1516,258.9741,-8.3704e-05,-1.621e-05,0.0,0 STARLINK-3194,1 49758U 21115AL  24015.41199129 -.00001621  00000-0 -83704-4 0  9999,2 49758  53.2201  59.8872 0002349 101.1516 258.9741 15.08853853118383,6917.838,95.437,541.328,538.078,0.0
49758.0,STARLINK-3194,PAYLOAD,2024-01-16 11:19:27,15.08833248,0.0001687,53.2198,55.1261,89.1256,270.9929,-2.0913e-05,-6.21e-06,0.0,0 STARLINK-3194,1 49758U 21115AL  24016.47184611 -.00000621  00000-0 -20913-4 0  9998,2 49758  53.2198  55.1261 0001687  89.1256 270.9929 15.08833248118545,6917.901,95.438,540.933,538.599,0.0
49758.0,STARLINK-3194,PAYLOAD,2024-01-16 12:54:50,15.0883581,0.0001686,53.2186,54.8257,96.1334,263.9851,-1.3134e-05,-4.97e-06,0.0,0 STARLINK-3194,1 49758U 21115AL  24016.53808363 -.00000497  00000-0 -13134-4 0  9990,2 49758  53.2186  54.8257 0001686  96.1334 263.9851 15.08835810117448,6917.893,95.438,540.925,538.592,0.0
49758.0,STARLINK-3194,PAYLOAD,2024-01-17 09:34:51,15.0884369,0.0001896,53.2192,50.9578,72.9724,287.1475,1.8577e-05,8e-08,0.0,0 STARLINK-3194,1 49758U 21115AL  24017.39920231  .00000008  00000-0  18577-4 0  9996,2 49758  53.2192  50.9578 0001896  72.9724 287.1475 15.08843690118688,6917.869,95.437,541.046,538.422,0.0
49758.0,STARLINK-3194,PAYLOAD,2024-01-17 23:53:19,15.08836016,0.0001545,53.2179,48.283,87.9024,272.2145,6.6856e-05,7.76e-06,0.0,0 STARLINK-3194,1 49758U 21115AL  24017.99536671  .00000776  00000-0  66856-4 0  9998,2 49758  53.2179  48.2830 0001545  87.9024 272.2145 15.08836016118777,6917.893,95.438,540.826,538.689,0.0
49758.0,STARLINK-3194,PAYLOAD,2024-01-18 11:01:00,15.08848146,0.0001852,53.2178,46.1981,113.6256,246.493,9.1312e-05,1.166e-05,0.0,0 STARLINK-3194,1 49758U 21115AL  24018.45903684  .00001166  00000-0  91312-4 0  9991,2 49758  53.2178  46.1981 0001852 113.6256 246.4930 15.08848146118845,6917.855,95.437,541.002,538.439,0.0
49758.0,STARLINK-3194,PAYLOAD,2024-01-19 01:19:30,15.08833515,0.0001952,53.2197,43.526,69.2302,290.8899,3.3051e-05,2.38e-06,0.0,0 STARLINK-3194,1 49758U 21115AL  24019.05521343  .00000238  00000-0  33051-4 0  9991,2 49758  53.2197  43.5260 0001952  69.2302 290.8899 15.08833515118937,6917.9,95.438,541.116,538.415,0.0
49758.0,STARLINK-3194,PAYLOAD,2024-01-19 07:41:02,15.08845332,0.0001812,53.2184,42.3342,106.3574,253.7617,-2.5909e-06,-3.29e-06,0.0,0 STARLINK-3194,1 49758U 21115AL  24019.32016455 -.00000329  00000-0 -25909-5 0  9991,2 49758  53.2184  42.3342 0001812 106.3574 253.7617 15.08845332118970,6917.864,95.437,540.983,538.476,0.0
49758.0,STARLINK-3194,PAYLOAD,2024-01-20 07:31:48,15.08859377,0.0001632,53.2176,37.8727,106.3572,253.76,0.00019342,2.793e-05,0.0,0 STARLINK-3194,1 49758U 21115AL  24020.31375098  .00002793  00000-0  19342-3 0  9990,2 49758  53.2176  37.8727 0001632 106.3572 253.7600 15.08859377119129,6917.821,95.436,540.815,538.557,0.0
49758.0,STARLINK-3194,PAYLOAD,2024-01-21 04:11:50,15.08837926,0.0001406,53.2177,34.0081,99.5736,260.5415,2.9219e-05,1.77e-06,0.0,0 STARLINK-3194,1 49758U 21115AL  24021.17488672  .00000177  00000-0  29219-4 0  9997,2 49758  53.2177  34.0081 0001406  99.5736 260.5415 15.08837926119256,6917.887,95.438,540.724,538.779,0.0
49758.0,STARLINK-3194,PAYLOAD,2024-01-21 05:47:13,15.08838465,0.0001612,53.2179,33.7104,110.1038,250.0128,3.4173e-05,2.56e-06,0.0,0 STARLINK-3194,1 49758U 21115AL  24021.24112617  .00000256  00000-0  34173-4 0  9991,2 49758  53.2179  33.7104 0001612 110.1038 250.0128 15.08838465118156,6917.885,95.438,540.865,538.635,0.0
49758.0,STARLINK-3194,PAYLOAD,2024-01-21 07:22:36,15.08838559,0.0001629,53.2179,33.4131,111.1517,248.9649,3.3885e-05,2.51e-06,0.0,0 STARLINK-3194,1 49758U 21115AL  24021.30736604  .00000251  00000-0  33885-4 0  9990,2 49758  53.2179  33.4131 0001629 111.1517 248.9649 15.08838559118163,6917.885,95.438,540.877,538.623,0.0
49758.0,STARLINK-3194,PAYLOAD,2024-01-22 05:38:00,15.08850811,0.0001441,53.2181,29.2505,96.9695,263.1462,-0.00014965,-2.67e-05,0.0,0 STARLINK-3194,1 49758U 21115AL  24022.23472840 -.00002670  00000-0 -14965-3 0  9998,2 49758  53.2181  29.2505 0001441  96.9695 263.1462 15.08850811118306,6917.847,95.437,540.709,538.715,0.0
49758.0,STARLINK-3194,PAYLOAD,2024-01-22 07:13:23,15.08845895,0.0001509,53.2182,28.9532,103.9476,256.1684,-4.8645e-05,-1.062e-05,0.0,0 STARLINK-3194,1 49758U 21115AL  24022.30096702 -.00001062  00000-0 -48645-4 0  9992,2 49758  53.2182  28.9532 0001509 103.9476 256.1684 15.08845895119422,6917.862,95.437,540.771,538.683,0.0
49758.0,STARLINK-3194,PAYLOAD,2024-01-23 03:53:24,15.08833792,0.0001558,53.2182,25.0889,105.5615,254.5549,5.7633e-05,6.29e-06,0.0,0 STARLINK-3194,1 49758U 21115AL  24023.16209097  .00000629  00000-0  57633-4 0  9993,2 49758  53.2182  25.0889 0001558 105.5615 254.5549 15.08833792119551,6917.899,95.438,540.842,538.687,0.0
49758.0,STARLINK-3194,PAYLOAD,2024-01-23 07:04:10,15.0883828,0.0001594,53.2182,24.4942,106.8223,253.2944,9.6241e-05,1.244e-05,0.0,0 STARLINK-3194,1 49758U 21115AL  24023.29456784  .00001244  00000-0  96241-4 0  9996,2 49758  53.2182  24.4942 0001594 106.8223 253.2944 15.08838280118464,6917.886,95.438,540.853,538.648,0.0
49758.0,STARLINK-3194,PAYLOAD,2024-01-24 05:19:35,15.08825846,0.0001758,53.2197,20.3322,111.2625,248.8555,0.0002253,3.298e-05,0.0,0 STARLINK-3194,1 49758U 21115AL  24024.22193476  .00003298  00000-0  22530-3 0  9996,2 49758  53.2197  20.3322 0001758 111.2625 248.8555 15.08825846119716,6917.924,95.438,541.005,538.572,0.0
49758.0,STARLINK-3194,PAYLOAD,2024-01-25 03:34:58,15.08839875,0.0001891,53.22,16.1721,115.5885,244.5303,3.7891e-05,3.15e-06,0.0,0 STARLINK-3194,1 49758U 21115AL  24025.14929227  .00000315  00000-0  37891-4 0  9993,2 49758  53.2200  16.1721 0001891 115.5885 244.5303 15.08839875119856,6917.881,95.438,541.054,538.438,0.0
49758.0,STARLINK-3194,PAYLOAD,2024-01-25 06:45:44,15.08844536,0.0001647,53.2191,15.5715,92.4605,267.6576,6.9741e-05,8.22e-06,0.0,0 STARLINK-3194,1 49758U 21115AL  24025.28176942  .00000822  00000-0  69741-4 0  9998,2 49758  53.2191  15.5715 0001647  92.4605 267.6576 15.08844536118760,6917.867,95.437,540.871,538.592,0.0
49758.0,STARLINK-3194,PAYLOAD,2024-01-26 06:36:32,15.08809546,0.0001968,53.2199,11.1162,71.1426,288.978,0.00045054,6.884e-05,0.0,0 STARLINK-3194,1 49758U 21115AL  24026.27538079  .00006884  00000-0  45054-3 0  9995,2 49758  53.2199  11.1162 0001968  71.1426 288.9780 15.08809546120024,6917.973,95.439,541.2,538.477,0.0
49758.0,STARLINK-3194,PAYLOAD,2024-01-27 08:02:43,15.08837666,0.00017,53.22,6.3528,75.9263,284.1918,2.2759e-05,7.4e-07,0.0,0 STARLINK-3194,1 49758U 21115AL  24027.33522747  .00000074  00000-0  22759-4 0  9991,2 49758  53.2200   6.3528 0001700  75.9263 284.1918 15.08837666120186,6917.888,95.438,540.929,538.576,0.0
49758.0,STARLINK-3194,PAYLOAD,2024-01-28 04:42:42,15.08857026,0.0001966,53.2211,2.4889,82.5827,277.5389,0.00019817,2.869e-05,0.0,0 STARLINK-3194,1 49758U 21115AL  24028.19632370  .00002869  00000-0  19817-3 0  9994,2 49758  53.2211   2.4889 0001966  82.5827 277.5389 15.08857026120314,6917.828,95.436,541.053,538.333,0.0
49758.0,STARLINK-3194,PAYLOAD,2024-01-28 22:11:58,15.08844058,0.0001467,53.2195,359.2162,96.901,263.2149,6.0985e-05,6.83e-06,0.0,0 STARLINK-3194,1 49758U 21115AL  24028.92497852  .00000683  00000-0  60985-4 0  9994,2 49758  53.2195 359.2162 0001467  96.9010 263.2149 15.08844058119316,6917.868,95.437,540.748,538.718,0.0
49758.0,STARLINK-3194,PAYLOAD,2024-01-29 02:58:07,15.08843927,0.0001276,53.2209,358.3301,78.9494,281.1641,-2.8067e-06,-3.33e-06,0.0,0 STARLINK-3194,1 49758U 21115AL  24029.12370074 -.00000333  00000-0 -28067-5 0  9993,2 49758  53.2209 358.3301 0001276  78.9494 281.1641 15.08843927120458,6917.868,95.437,540.616,538.851,0.0
49758.0,STARLINK-3194,PAYLOAD,2024-01-29 22:02:45,15.08838822,0.0001948,53.2199,354.7577,126.529,233.5882,-2.6512e-05,-7.1e-06,0.0,0 STARLINK-3194,1 49758U 21115AL  24029.91857789 -.00000710  00000-0 -26512-4 0  9994,2 49758  53.2199 354.7577 0001948 126.5290 233.5882 15.08838822119466,6917.884,95.438,541.097,538.401,0.0
